# Central TLE store (can later be auto-updated)

TLE_DATA = {
    "ISS": (
        "1 25544U 98067A   26016.50000000  .00016717  00000+0  10270-3 0  9001",
        "2 25544  51.6442  20.0000 0004971  84.5735  40.2044 15.50000000  9992"
    ),
    "LANDSAT_8": (
        "1 39084U 13008A   26016.41000000  .00000023  00000+0  34867-4 0  9997",
        "2 39084  98.2094  33.0215 0001436  87.9634 272.1638 14.57100000  9999"
    ),
    "SENTINEL_6": (
        "1 46984U 20086A   26016.45000000 -.00000045  00000+0  00000+0 0  9993",
        "2 46984  66.0000 240.0000 0008000  90.0000 270.0000 12.80000000  9994"
    )
}
